{
  "type": "FeatureCollection",
  "features": [
    {
      "type": "Feature",
      "properties": {
        "norad_id": 31005,
        "name": "FENGYUN 1C DEB",
        "group": "fengyun-1c-debris",
        "lat": 71.77704976864669,
        "lon": -18.81896815105538,
        "alt_km": 1077.9796529740788,
        "timestamp": "2025-12-27T05:29:39.482908+00:00",
        "meta_object_name": "FENGYUN 1C DEB",
        "meta_object_id": "1999-025BCX",
        "meta_epoch": "2025-12-25T08:06:17.154720",
        "meta_mean_motion": 13.83315917,
        "meta_eccentricity": 0.0181141,
        "meta_inclination": 98.6135,
        "meta_ra_of_asc_node": 132.0365,
        "meta_arg_of_pericenter": 290.9603,
        "meta_mean_anomaly": 122.0502,
        "meta_ephemeris_type": 0,
        "meta_classification_type": "U",
        "meta_norad_cat_id": 31005,
        "meta_element_set_no": 999,
        "meta_rev_at_epoch": 94455,
        "meta_bstar": 0.0012807,
        "meta_mean_motion_dot": 1.556e-05,
        "meta_mean_motion_ddot": 0,
        "tle_line1": "1 31005U 99025BCX 25359.33769855  .00001556  00000+0  12807-2 0  9990",
        "tle_line2": "2 31005  98.6135 132.0365 0181141 290.9603 122.0502 13.83315917944558"
      },
      "geometry": {
        "type": "Point",
        "coordinates": [
          -18.81896815105538,
          71.77704976864669
        ]
      }
    },
    {
      "type": "Feature",
      "properties": {
        "norad_id": 31007,
        "name": "FENGYUN 1C DEB",
        "group": "fengyun-1c-debris",
        "lat": 34.76558449263893,
        "lon": 178.3155822158868,
        "alt_km": 735.4137592218922,
        "timestamp": "2025-12-27T05:29:39.482918+00:00",
        "meta_object_name": "FENGYUN 1C DEB",
        "meta_object_id": "1999-025BCZ",
        "meta_epoch": "2025-12-26T05:47:25.251072",
        "meta_mean_motion": 14.58925685,
        "meta_eccentricity": 0.006635,
        "meta_inclination": 98.0887,
        "meta_ra_of_asc_node": 351.6885,
        "meta_arg_of_pericenter": 356.4462,
        "meta_mean_anomaly": 3.6258,
        "meta_ephemeris_type": 0,
        "meta_classification_type": "U",
        "meta_norad_cat_id": 31007,
        "meta_element_set_no": 999,
        "meta_rev_at_epoch": 98291,
        "meta_bstar": 0.0024558,
        "meta_mean_motion_dot": 0.00011838,
        "meta_mean_motion_ddot": 0,
        "tle_line1": "1 31007U 99025BCZ 25360.24126448  .00011838  00000+0  24558-2 0  9999",
        "tle_line2": "2 31007  98.0887 351.6885 0066350 356.4462   3.6258 14.58925685982915"
      },
      "geometry": {
        "type": "Point",
        "coordinates": [
          178.3155822158868,
          34.76558449263893
        ]
      }
    },
    {
      "type": "Feature",
      "properties": {
        "norad_id": 31009,
        "name": "FENGYUN 1C DEB",
        "group": "fengyun-1c-debris",
        "lat": -70.05944159517374,
        "lon": 151.0842020674546,
        "alt_km": 877.769942667549,
        "timestamp": "2025-12-27T05:29:39.482928+00:00",
        "meta_object_name": "FENGYUN 1C DEB",
        "meta_object_id": "1999-025BDB",
        "meta_epoch": "2025-12-26T23:25:40.076256",
        "meta_mean_motion": 14.00368433,
        "meta_eccentricity": 0.00533385,
        "meta_inclination": 98.8965,
        "meta_ra_of_asc_node": 356.4159,
        "meta_arg_of_pericenter": 197.0378,
        "meta_mean_anomaly": 220.9032,
        "meta_ephemeris_type": 0,
        "meta_classification_type": "U",
        "meta_norad_cat_id": 31009,
        "meta_element_set_no": 999,
        "meta_rev_at_epoch": 96060,
        "meta_bstar": 0.00010810256,
        "meta_mean_motion_dot": 1.19e-06,
        "meta_mean_motion_ddot": 0,
        "tle_line1": "1 31009U 99025BDB 25360.97615829  .00000119  00000+0  10810-3 0  9994",
        "tle_line2": "2 31009  98.8965 356.4159 0053338 197.0378 220.9032 14.00368433960601"
      },
      "geometry": {
        "type": "Point",
        "coordinates": [
          151.0842020674546,
          -70.05944159517374
        ]
      }
    },
    {
      "type": "Feature",
      "properties": {
        "norad_id": 31010,
        "name": "FENGYUN 1C DEB",
        "group": "fengyun-1c-debris",
        "lat": -26.32303605701139,
        "lon": -32.82594379272227,
        "alt_km": 837.2539794341183,
        "timestamp": "2025-12-27T05:29:39.482938+00:00",
        "meta_object_name": "FENGYUN 1C DEB",
        "meta_object_id": "1999-025BDC",
        "meta_epoch": "2025-12-26T21:46:56.094816",
        "meta_mean_motion": 14.26027308,
        "meta_eccentricity": 0.01133785,
        "meta_inclination": 101.7252,
        "meta_ra_of_asc_node": 152.6427,
        "meta_arg_of_pericenter": 317.4139,
        "meta_mean_anomaly": 41.828,
        "meta_ephemeris_type": 0,
        "meta_classification_type": "U",
        "meta_norad_cat_id": 31010,
        "meta_element_set_no": 999,
        "meta_rev_at_epoch": 95831,
        "meta_bstar": 0.0040880364,
        "meta_mean_motion_dot": 0.00010391,
        "meta_mean_motion_ddot": 0,
        "tle_line1": "1 31010U 99025BDC 25360.90759369  .00010391  00000+0  40880-2 0  9999",
        "tle_line2": "2 31010 101.7252 152.6427 0113378 317.4139  41.8280 14.26027308958315"
      },
      "geometry": {
        "type": "Point",
        "coordinates": [
          -32.82594379272227,
          -26.32303605701139
        ]
      }
    },
    {
      "type": "Feature",
      "properties": {
        "norad_id": 31012,
        "name": "FENGYUN 1C DEB",
        "group": "fengyun-1c-debris",
        "lat": 47.66625588851547,
        "lon": -110.29701834974449,
        "alt_km": 849.7447795007974,
        "timestamp": "2025-12-27T05:29:39.482949+00:00",
        "meta_object_name": "FENGYUN 1C DEB",
        "meta_object_id": "1999-025BDE",
        "meta_epoch": "2025-12-25T16:31:40.864224",
        "meta_mean_motion": 14.27874514,
        "meta_eccentricity": 0.00816684,
        "meta_inclination": 98.9114,
        "meta_ra_of_asc_node": 258.0495,
        "meta_arg_of_pericenter": 213.4298,
        "meta_mean_anomaly": 202.3807,
        "meta_ephemeris_type": 0,
        "meta_classification_type": "U",
        "meta_norad_cat_id": 31012,
        "meta_element_set_no": 999,
        "meta_rev_at_epoch": 97932,
        "meta_bstar": 0.00017105569,
        "meta_mean_motion_dot": 3.92e-06,
        "meta_mean_motion_ddot": 0,
        "tle_line1": "1 31012U 99025BDE 25359.68866741  .00000392  00000+0  17106-3 0  9993",
        "tle_line2": "2 31012  98.9114 258.0495 0081668 213.4298 202.3807 14.27874514979327"
      },
      "geometry": {
        "type": "Point",
        "coordinates": [
          -110.29701834974449,
          47.66625588851547
        ]
      }
    },
    {
      "type": "Feature",
      "properties": {
        "norad_id": 31014,
        "name": "FENGYUN 1C DEB",
        "group": "fengyun-1c-debris",
        "lat": -35.58198176712523,
        "lon": 149.94803392538606,
        "alt_km": 874.9236809361046,
        "timestamp": "2025-12-27T05:29:39.482959+00:00",
        "meta_object_name": "FENGYUN 1C DEB",
        "meta_object_id": "1999-025BDG",
        "meta_epoch": "2025-12-26T21:52:17.617728",
        "meta_mean_motion": 13.98492488,
        "meta_eccentricity": 0.00886334,
        "meta_inclination": 98.8697,
        "meta_ra_of_asc_node": 336.0553,
        "meta_arg_of_pericenter": 154.4311,
        "meta_mean_anomaly": 262.4788,
        "meta_ephemeris_type": 0,
        "meta_classification_type": "U",
        "meta_norad_cat_id": 31014,
        "meta_element_set_no": 999,
        "meta_rev_at_epoch": 96034,
        "meta_bstar": -8.8728437e-05,
        "meta_mean_motion_dot": -1.73e-06,
        "meta_mean_motion_ddot": 0,
        "tle_line1": "1 31014U 99025BDG 25360.91131502 -.00000173  00000+0 -88728-4 0  9991",
        "tle_line2": "2 31014  98.8697 336.0553 0088633 154.4311 262.4788 13.98492488960345"
      },
      "geometry": {
        "type": "Point",
        "coordinates": [
          149.94803392538606,
          -35.58198176712523
        ]
      }
    },
    {
      "type": "Feature",
      "properties": {
        "norad_id": 31016,
        "name": "FENGYUN 1C DEB",
        "group": "fengyun-1c-debris",
        "lat": -15.031178905384188,
        "lon": -165.66038587843454,
        "alt_km": 729.1869680563113,
        "timestamp": "2025-12-27T05:29:39.482969+00:00",
        "meta_object_name": "FENGYUN 1C DEB",
        "meta_object_id": "1999-025BDJ",
        "meta_epoch": "2025-12-26T17:08:49.146144",
        "meta_mean_motion": 14.30515996,
        "meta_eccentricity": 0.01122479,
        "meta_inclination": 98.4358,
        "meta_ra_of_asc_node": 16.1244,
        "meta_arg_of_pericenter": 232.5097,
        "meta_mean_anomaly": 195.3858,
        "meta_ephemeris_type": 0,
        "meta_classification_type": "U",
        "meta_norad_cat_id": 31016,
        "meta_element_set_no": 999,
        "meta_rev_at_epoch": 97670,
        "meta_bstar": 0.00027285605,
        "meta_mean_motion_dot": 7.18e-06,
        "meta_mean_motion_ddot": 0,
        "tle_line1": "1 31016U 99025BDJ 25360.71445771  .00000718  00000+0  27286-3 0  9991",
        "tle_line2": "2 31016  98.4358  16.1244 0112247 232.5097 195.3858 14.30515996976704"
      },
      "geometry": {
        "type": "Point",
        "coordinates": [
          -165.66038587843454,
          -15.031178905384188
        ]
      }
    }
  ]
}